[{"OBJECT_NAME":"GSAT-18","OBJECT_ID":"2016-060A","EPOCH":"2026-03-03T18:25:25.778208","MEAN_MOTION":1.00269358,"ECCENTRICITY":0.0003315,"INCLINATION":0.0254,"RA_OF_ASC_NODE":160.9361,"ARG_OF_PERICENTER":237.8162,"MEAN_ANOMALY":113.1299,"EPHEMERIS_TYPE":0,"CLASSIFICATION_TYPE":"U","NORAD_CAT_ID":41793,"ELEMENT_SET_NO":999,"REV_AT_EPOCH":3447,"BSTAR":0,"MEAN_MOTION_DOT":0,"MEAN_MOTION_DDOT":0},{"OBJECT_NAME":"SKY MUSTER 2 (NBN1B)","OBJECT_ID":"2016-060B","EPOCH":"2026-03-03T18:11:14.637984","MEAN_MOTION":1.0026827,"ECCENTRICITY":0.0001663,"INCLINATION":0.0212,"RA_OF_ASC_NODE":167.6673,"ARG_OF_PERICENTER":183.5219,"MEAN_ANOMALY":227.9529,"EPHEMERIS_TYPE":0,"CLASSIFICATION_TYPE":"U","NORAD_CAT_ID":41794,"ELEMENT_SET_NO":999,"REV_AT_EPOCH":3446,"BSTAR":0,"MEAN_MOTION_DOT":0,"MEAN_MOTION_DDOT":0},{"OBJECT_NAME":"HIMAWARI-9","OBJECT_ID":"2016-064A","EPOCH":"2026-03-03T17:16:38.719776","MEAN_MOTION":1.00272468,"ECCENTRICITY":0.0001154,"INCLINATION":0.0152,"RA_OF_ASC_NODE":183.4454,"ARG_OF_PERICENTER":181.7639,"MEAN_ANOMALY":196.202,"EPHEMERIS_TYPE":0,"CLASSIFICATION_TYPE":"U","NORAD_CAT_ID":41836,"ELEMENT_SET_NO":999,"REV_AT_EPOCH":3415,"BSTAR":0,"MEAN_MOTION_DOT":-2.89e-6,"MEAN_MOTION_DDOT":0},{"OBJECT_NAME":"SHIJIAN-17 (SJ-17)","OBJECT_ID":"2016-065A","EPOCH":"2026-03-03T15:56:12.578208","MEAN_MOTION":0.99860772,"ECCENTRICITY":9.15e-5,"INCLINATION":5.4847,"RA_OF_ASC_NODE":73.875,"ARG_OF_PERICENTER":302.4224,"MEAN_ANOMALY":55.6785,"EPHEMERIS_TYPE":0,"CLASSIFICATION_TYPE":"U","NORAD_CAT_ID":41838,"ELEMENT_SET_NO":999,"REV_AT_EPOCH":3414,"BSTAR":0,"MEAN_MOTION_DOT":1.08e-6,"MEAN_MOTION_DDOT":0},{"OBJECT_NAME":"GOES 16","OBJECT_ID":"2016-071A","EPOCH":"2026-03-03T13:34:41.141280","MEAN_MOTION":1.00271662,"ECCENTRICITY":0.0002571,"INCLINATION":0.1452,"RA_OF_ASC_NODE":90.1946,"ARG_OF_PERICENTER":216.7975,"MEAN_ANOMALY":313.3003,"EPHEMERIS_TYPE":0,"CLASSIFICATION_TYPE":"U","NORAD_CAT_ID":41866,"ELEMENT_SET_NO":999,"REV_AT_EPOCH":3404,"BSTAR":0,"MEAN_MOTION_DOT":-1.05e-6,"MEAN_MOTION_DDOT":0},{"OBJECT_NAME":"TIANLIAN 1-04","OBJECT_ID":"2016-072A","EPOCH":"2026-03-03T20:11:38.738976","MEAN_MOTION":1.00273479,"ECCENTRICITY":0.0040617,"INCLINATION":0.5951,"RA_OF_ASC_NODE":83.6121,"ARG_OF_PERICENTER":94.5779,"MEAN_ANOMALY":103.0677,"EPHEMERIS_TYPE":0,"CLASSIFICATION_TYPE":"U","NORAD_CAT_ID":41869,"ELEMENT_SET_NO":999,"REV_AT_EPOCH":3424,"BSTAR":0,"MEAN_MOTION_DOT":1.7e-7,"MEAN_MOTION_DDOT":0},{"OBJECT_NAME":"WGS F8 (USA 272)","OBJECT_ID":"2016-075A","EPOCH":"2026-03-03T13:36:26.584704","MEAN_MOTION":1.00271983,"ECCENTRICITY":1.9e-5,"INCLINATION":0.0077,"RA_OF_ASC_NODE":168.9537,"ARG_OF_PERICENTER":261.1765,"MEAN_ANOMALY":85.1057,"EPHEMERIS_TYPE":0,"CLASSIFICATION_TYPE":"U","NORAD_CAT_ID":41879,"ELEMENT_SET_NO":999,"REV_AT_EPOCH":3376,"BSTAR":0,"MEAN_MOTION_DOT":-2.17e-6,"MEAN_MOTION_DDOT":0},{"OBJECT_NAME":"FENGYUN 4A","OBJECT_ID":"2016-077A","EPOCH":"2026-03-03T19:47:55.659264","MEAN_MOTION":1.00279555,"ECCENTRICITY":0.0007492,"INCLINATION":2.0544,"RA_OF_ASC_NODE":81.419,"ARG_OF_PERICENTER":135.908,"MEAN_ANOMALY":4.7833,"EPHEMERIS_TYPE":0,"CLASSIFICATION_TYPE":"U","NORAD_CAT_ID":41882,"ELEMENT_SET_NO":999,"REV_AT_EPOCH":3387,"BSTAR":0,"MEAN_MOTION_DOT":-3.7e-6,"MEAN_MOTION_DDOT":0},{"OBJECT_NAME":"ECHOSTAR 19","OBJECT_ID":"2016-079A","EPOCH":"2026-03-03T15:19:31.094112","MEAN_MOTION":1.00271159,"ECCENTRICITY":0.0001468,"INCLINATION":0.0147,"RA_OF_ASC_NODE":118.439,"ARG_OF_PERICENTER":222.805,"MEAN_ANOMALY":312.926,"EPHEMERIS_TYPE":0,"CLASSIFICATION_TYPE":"U","NORAD_CAT_ID":41893,"ELEMENT_SET_NO":999,"REV_AT_EPOCH":3364,"BSTAR":0,"MEAN_MOTION_DOT":-1.53e-6,"MEAN_MOTION_DDOT":0},{"OBJECT_NAME":"JCSAT-110A (JCSAT-15)","OBJECT_ID":"2016-082A","EPOCH":"2026-03-03T14:26:38.976000","MEAN_MOTION":1.00270304,"ECCENTRICITY":7.79e-5,"INCLINATION":0.0032,"RA_OF_ASC_NODE":163.7197,"ARG_OF_PERICENTER":193.878,"MEAN_ANOMALY":130.4782,"EPHEMERIS_TYPE":0,"CLASSIFICATION_TYPE":"U","NORAD_CAT_ID":41903,"ELEMENT_SET_NO":999,"REV_AT_EPOCH":3370,"BSTAR":0,"MEAN_MOTION_DOT":-3.65e-6,"MEAN_MOTION_DDOT":0},{"OBJECT_NAME":"STAR ONE D1","OBJECT_ID":"2016-082B","EPOCH":"2026-03-03T13:40:33.077856","MEAN_MOTION":1.00271426,"ECCENTRICITY":0.0002165,"INCLINATION":0.0188,"RA_OF_ASC_NODE":102.1961,"ARG_OF_PERICENTER":244.6353,"MEAN_ANOMALY":295.6287,"EPHEMERIS_TYPE":0,"CLASSIFICATION_TYPE":"U","NORAD_CAT_ID":41904,"ELEMENT_SET_NO":999,"REV_AT_EPOCH":3371,"BSTAR":0,"MEAN_MOTION_DOT":-2.25e-6,"MEAN_MOTION_DDOT":0},{"OBJECT_NAME":"TJS-2","OBJECT_ID":"2017-001A","EPOCH":"2026-03-03T18:23:26.201472","MEAN_MOTION":1.00271581,"ECCENTRICITY":0.0001834,"INCLINATION":0.5611,"RA_OF_ASC_NODE":86.9667,"ARG_OF_PERICENTER":247.5223,"MEAN_ANOMALY":169.4161,"EPHEMERIS_TYPE":0,"CLASSIFICATION_TYPE":"U","NORAD_CAT_ID":41911,"ELEMENT_SET_NO":999,"REV_AT_EPOCH":3366,"BSTAR":0,"MEAN_MOTION_DOT":-2.0e-7,"MEAN_MOTION_DDOT":0},{"OBJECT_NAME":"SBIRS GEO-4 (USA 273)","OBJECT_ID":"2017-004A","EPOCH":"2026-03-03T14:10:30.209088","MEAN_MOTION":1.00272038,"ECCENTRICITY":0.000242,"INCLINATION":2.0476,"RA_OF_ASC_NODE":40.0392,"ARG_OF_PERICENTER":302.1281,"MEAN_ANOMALY":52.6955,"EPHEMERIS_TYPE":0,"CLASSIFICATION_TYPE":"U","NORAD_CAT_ID":41937,"ELEMENT_SET_NO":999,"REV_AT_EPOCH":3353,"BSTAR":0,"MEAN_MOTION_DOT":1.1e-6,"MEAN_MOTION_DDOT":0},{"OBJECT_NAME":"HISPASAT 36W-1","OBJECT_ID":"2017-006A","EPOCH":"2026-03-03T19:02:24.734112","MEAN_MOTION":1.00272651,"ECCENTRICITY":9.93e-5,"INCLINATION":0.002,"RA_OF_ASC_NODE":69.295,"ARG_OF_PERICENTER":265.1941,"MEAN_ANOMALY":76.6606,"EPHEMERIS_TYPE":0,"CLASSIFICATION_TYPE":"U","NORAD_CAT_ID":41942,"ELEMENT_SET_NO":999,"REV_AT_EPOCH":3318,"BSTAR":0,"MEAN_MOTION_DOT":-2.58e-6,"MEAN_MOTION_DDOT":0},{"OBJECT_NAME":"TELKOM 3S","OBJECT_ID":"2017-007A","EPOCH":"2026-03-03T18:03:37.867104","MEAN_MOTION":1.00270838,"ECCENTRICITY":0.0002388,"INCLINATION":0.006,"RA_OF_ASC_NODE":145.9922,"ARG_OF_PERICENTER":195.8961,"MEAN_ANOMALY":208.5177,"EPHEMERIS_TYPE":0,"CLASSIFICATION_TYPE":"U","NORAD_CAT_ID":41944,"ELEMENT_SET_NO":999,"REV_AT_EPOCH":3308,"BSTAR":0,"MEAN_MOTION_DOT":-3.76e-6,"MEAN_MOTION_DDOT":0},{"OBJECT_NAME":"INTELSAT 32E (IS-32E)","OBJECT_ID":"2017-007B","EPOCH":"2026-03-03T19:00:17.436672","MEAN_MOTION":1.00269682,"ECCENTRICITY":4.32e-5,"INCLINATION":0.0185,"RA_OF_ASC_NODE":128.1858,"ARG_OF_PERICENTER":134.6982,"MEAN_ANOMALY":140.5442,"EPHEMERIS_TYPE":0,"CLASSIFICATION_TYPE":"U","NORAD_CAT_ID":41945,"ELEMENT_SET_NO":999,"REV_AT_EPOCH":3316,"BSTAR":0,"MEAN_MOTION_DOT":-2.83e-6,"MEAN_MOTION_DDOT":0},{"OBJECT_NAME":"ECHOSTAR 23","OBJECT_ID":"2017-014A","EPOCH":"2026-03-03T15:15:53.940672","MEAN_MOTION":1.0027024,"ECCENTRICITY":0.0001966,"INCLINATION":0.008,"RA_OF_ASC_NODE":101.3021,"ARG_OF_PERICENTER":244.0813,"MEAN_ANOMALY":295.0734,"EPHEMERIS_TYPE":0,"CLASSIFICATION_TYPE":"U","NORAD_CAT_ID":42070,"ELEMENT_SET_NO":999,"REV_AT_EPOCH":3286,"BSTAR":0,"MEAN_MOTION_DOT":-7.1e-7,"MEAN_MOTION_DDOT":0}]
