GSAT-18                 
1 41793U 16060A   26062.76765947  .00000000  00000+0  00000+0 0  9992
2 41793   0.0254 160.9361 0003315 237.8162 113.1299  1.00269358 34472
SKY MUSTER 2 (NBN1B)    
1 41794U 16060B   26062.75780831  .00000000  00000+0  00000+0 0  9991
2 41794   0.0212 167.6673 0001663 183.5219 227.9529  1.00268270 34462
HIMAWARI-9              
1 41836U 16064A   26062.71989259 -.00000289  00000+0  00000+0 0  9993
2 41836   0.0152 183.4454 0001154 181.7639 196.2020  1.00272468 34150
SHIJIAN-17 (SJ-17)      
1 41838U 16065A   26062.66403447  .00000108  00000+0  00000+0 0  9999
2 41838   5.4847  73.8750 0000915 302.4224  55.6785  0.99860772 34142
GOES 16                 
1 41866U 16071A   26062.56575395 -.00000105  00000+0  00000+0 0  9996
2 41866   0.1452  90.1946 0002571 216.7975 313.3003  1.00271662 34049
TIANLIAN 1-04           
1 41869U 16072A   26062.84142059  .00000017  00000+0  00000+0 0  9999
2 41869   0.5951  83.6121 0040617  94.5779 103.0677  1.00273479 34240
WGS F8 (USA 272)        
1 41879U 16075A   26062.56697436 -.00000217  00000+0  00000+0 0  9999
2 41879   0.0077 168.9537 0000190 261.1765  85.1057  1.00271983 33768
FENGYUN 4A              
1 41882U 16077A   26062.82494976 -.00000370  00000+0  00000+0 0  9998
2 41882   2.0544  81.4190 0007492 135.9080   4.7833  1.00279555 33871
ECHOSTAR 19             
1 41893U 16079A   26062.63855433 -.00000153  00000+0  00000+0 0  9999
2 41893   0.0147 118.4390 0001468 222.8050 312.9260  1.00271159 33648
JCSAT-110A (JCSAT-15)   
1 41903U 16082A   26062.60184000 -.00000365  00000+0  00000+0 0  9992
2 41903   0.0032 163.7197 0000779 193.8780 130.4782  1.00270304 33702
STAR ONE D1             
1 41904U 16082B   26062.56982729 -.00000225  00000+0  00000+0 0  9997
2 41904   0.0188 102.1961 0002165 244.6353 295.6287  1.00271426 33714
TJS-2                   
1 41911U 17001A   26062.76627548 -.00000020  00000+0  00000+0 0  9997
2 41911   0.5611  86.9667 0001834 247.5223 169.4161  1.00271581 33665
SBIRS GEO-4 (USA 273)   
1 41937U 17004A   26062.59062742  .00000110  00000+0  00000+0 0  9997
2 41937   2.0476  40.0392 0002420 302.1281  52.6955  1.00272038 33537
HISPASAT 36W-1          
1 41942U 17006A   26062.79334183 -.00000258  00000+0  00000+0 0  9992
2 41942   0.0020  69.2950 0000993 265.1941  76.6606  1.00272651 33184
TELKOM 3S               
1 41944U 17007A   26062.75252161 -.00000376  00000+0  00000+0 0  9997
2 41944   0.0060 145.9922 0002388 195.8961 208.5177  1.00270838 33085
INTELSAT 32E (IS-32E)   
1 41945U 17007B   26062.79186848 -.00000283  00000+0  00000+0 0  9997
2 41945   0.0185 128.1858 0000432 134.6982 140.5442  1.00269682 33161
ECHOSTAR 23             
1 42070U 17014A   26062.63604098 -.00000071  00000+0  00000+0 0  9995
2 42070   0.0080 101.3021 0001966 244.0813 295.0734  1.00270240 32860
